{
  "type": "FeatureCollection",
  "features": [
    {
      "type": "Feature",
      "properties": {
        "norad_id": 30556,
        "name": "FENGYUN 1C DEB",
        "group": "fengyun-1c-debris",
        "lat": -15.497558902830532,
        "lon": -3.88938875413183,
        "alt_km": 935.4643197201822,
        "timestamp": "2025-12-26T22:28:06.061560+00:00",
        "meta_object_name": "FENGYUN 1C DEB",
        "meta_object_id": "1999-025AKW",
        "meta_epoch": "2025-12-26T12:52:32.213280",
        "meta_mean_motion": 14.01375679,
        "meta_eccentricity": 0.00688393,
        "meta_inclination": 98.7809,
        "meta_ra_of_asc_node": 353.2698,
        "meta_arg_of_pericenter": 198.7517,
        "meta_mean_anomaly": 289.903,
        "meta_ephemeris_type": 0,
        "meta_classification_type": "U",
        "meta_norad_cat_id": 30556,
        "meta_element_set_no": 999,
        "meta_rev_at_epoch": 96450,
        "meta_bstar": 0.00021643378,
        "meta_mean_motion_dot": 2.91e-06,
        "meta_mean_motion_ddot": 0,
        "tle_line1": "1 30556U 99025AKW 25360.53648395  .00000291  00000+0  21643-3 0  9993",
        "tle_line2": "2 30556  98.7809 353.2698 0068839 198.7517 289.9030 14.01375679964508"
      },
      "geometry": {
        "type": "Point",
        "coordinates": [
          -3.88938875413183,
          -15.497558902830532
        ]
      }
    },
    {
      "type": "Feature",
      "properties": {
        "norad_id": 30557,
        "name": "FENGYUN 1C DEB",
        "group": "fengyun-1c-debris",
        "lat": -50.81739848434478,
        "lon": -125.11596717183464,
        "alt_km": 824.2340983556878,
        "timestamp": "2025-12-26T22:28:06.061570+00:00",
        "meta_object_name": "FENGYUN 1C DEB",
        "meta_object_id": "1999-025AKX",
        "meta_epoch": "2025-12-26T02:39:10.305216",
        "meta_mean_motion": 14.10859725,
        "meta_eccentricity": 0.00688553,
        "meta_inclination": 98.9191,
        "meta_ra_of_asc_node": 65.1729,
        "meta_arg_of_pericenter": 195.305,
        "meta_mean_anomaly": 164.6038,
        "meta_ephemeris_type": 0,
        "meta_classification_type": "U",
        "meta_norad_cat_id": 30557,
        "meta_element_set_no": 999,
        "meta_rev_at_epoch": 96489,
        "meta_bstar": 0.001383449,
        "meta_mean_motion_dot": 2.491e-05,
        "meta_mean_motion_ddot": 0,
        "tle_line1": "1 30557U 99025AKX 25360.11053594  .00002491  00000+0  13834-2 0  9995",
        "tle_line2": "2 30557  98.9191  65.1729 0068855 195.3050 164.6038 14.10859725964890"
      },
      "geometry": {
        "type": "Point",
        "coordinates": [
          -125.11596717183464,
          -50.81739848434478
        ]
      }
    },
    {
      "type": "Feature",
      "properties": {
        "norad_id": 30558,
        "name": "FENGYUN 1C DEB",
        "group": "fengyun-1c-debris",
        "lat": 71.87440724635859,
        "lon": 110.09120082212065,
        "alt_km": 1453.9737591705416,
        "timestamp": "2025-12-26T22:28:06.061581+00:00",
        "meta_object_name": "FENGYUN 1C DEB",
        "meta_object_id": "1999-025AKY",
        "meta_epoch": "2025-12-18T02:35:59.256672",
        "meta_mean_motion": 13.28535877,
        "meta_eccentricity": 0.04271131,
        "meta_inclination": 99.4659,
        "meta_ra_of_asc_node": 132.6231,
        "meta_arg_of_pericenter": 260.3076,
        "meta_mean_anomaly": 94.9567,
        "meta_ephemeris_type": 0,
        "meta_classification_type": "U",
        "meta_norad_cat_id": 30558,
        "meta_element_set_no": 999,
        "meta_rev_at_epoch": 90829,
        "meta_bstar": 0.0032374201,
        "meta_mean_motion_dot": 2.396e-05,
        "meta_mean_motion_ddot": 0,
        "tle_line1": "1 30558U 99025AKY 25352.10832473  .00002396  00000+0  32374-2 0  9991",
        "tle_line2": "2 30558  99.4659 132.6231 0427113 260.3076  94.9567 13.28535877908292"
      },
      "geometry": {
        "type": "Point",
        "coordinates": [
          110.09120082212065,
          71.87440724635859
        ]
      }
    },
    {
      "type": "Feature",
      "properties": {
        "norad_id": 30560,
        "name": "FENGYUN 1C DEB",
        "group": "fengyun-1c-debris",
        "lat": -57.85085844770741,
        "lon": 8.355474718700455,
        "alt_km": 895.7872315105024,
        "timestamp": "2025-12-26T22:28:06.061592+00:00",
        "meta_object_name": "FENGYUN 1C DEB",
        "meta_object_id": "1999-025ALA",
        "meta_epoch": "2025-12-26T11:36:38.935008",
        "meta_mean_motion": 14.17040635,
        "meta_eccentricity": 0.01155341,
        "meta_inclination": 98.6645,
        "meta_ra_of_asc_node": 353.8735,
        "meta_arg_of_pericenter": 172.1466,
        "meta_mean_anomaly": 341.4462,
        "meta_ephemeris_type": 0,
        "meta_classification_type": "U",
        "meta_norad_cat_id": 30560,
        "meta_element_set_no": 999,
        "meta_rev_at_epoch": 97563,
        "meta_bstar": 0.0002405687,
        "meta_mean_motion_dot": 4.74e-06,
        "meta_mean_motion_ddot": 0,
        "tle_line1": "1 30560U 99025ALA 25360.48378397  .00000474  00000+0  24057-3 0  9999",
        "tle_line2": "2 30560  98.6645 353.8735 0115534 172.1466 341.4462 14.17040635975639"
      },
      "geometry": {
        "type": "Point",
        "coordinates": [
          8.355474718700455,
          -57.85085844770741
        ]
      }
    },
    {
      "type": "Feature",
      "properties": {
        "norad_id": 30561,
        "name": "FENGYUN 1C DEB",
        "group": "fengyun-1c-debris",
        "lat": 71.31562833234278,
        "lon": -150.32387000229994,
        "alt_km": 810.8283869151783,
        "timestamp": "2025-12-26T22:28:06.061602+00:00",
        "meta_object_name": "FENGYUN 1C DEB",
        "meta_object_id": "1999-025ALB",
        "meta_epoch": "2025-12-26T00:09:27.167616",
        "meta_mean_motion": 14.11286866,
        "meta_eccentricity": 0.00607358,
        "meta_inclination": 98.7247,
        "meta_ra_of_asc_node": 1.767,
        "meta_arg_of_pericenter": 76.9186,
        "meta_mean_anomaly": 348.8602,
        "meta_ephemeris_type": 0,
        "meta_classification_type": "U",
        "meta_norad_cat_id": 30561,
        "meta_element_set_no": 999,
        "meta_rev_at_epoch": 97165,
        "meta_bstar": 0.00031469095,
        "meta_mean_motion_dot": 5.36e-06,
        "meta_mean_motion_ddot": 0,
        "tle_line1": "1 30561U 99025ALB 25360.00656444  .00000536  00000+0  31469-3 0  9994",
        "tle_line2": "2 30561  98.7247   1.7670 0060735  76.9186 348.8602 14.11286866971655"
      },
      "geometry": {
        "type": "Point",
        "coordinates": [
          -150.32387000229994,
          71.31562833234278
        ]
      }
    },
    {
      "type": "Feature",
      "properties": {
        "norad_id": 30562,
        "name": "FENGYUN 1C DEB",
        "group": "fengyun-1c-debris",
        "lat": -36.73756051967374,
        "lon": -117.99367745193038,
        "alt_km": 778.17616518267,
        "timestamp": "2025-12-26T22:28:06.061614+00:00",
        "meta_object_name": "FENGYUN 1C DEB",
        "meta_object_id": "1999-025ALC",
        "meta_epoch": "2025-12-25T17:20:11.726016",
        "meta_mean_motion": 14.23142059,
        "meta_eccentricity": 0.00600345,
        "meta_inclination": 98.7626,
        "meta_ra_of_asc_node": 67.4091,
        "meta_arg_of_pericenter": 227.975,
        "meta_mean_anomaly": 253.9513,
        "meta_ephemeris_type": 0,
        "meta_classification_type": "U",
        "meta_norad_cat_id": 30562,
        "meta_element_set_no": 999,
        "meta_rev_at_epoch": 97184,
        "meta_bstar": 0.0016660527,
        "meta_mean_motion_dot": 3.79e-05,
        "meta_mean_motion_ddot": 0,
        "tle_line1": "1 30562U 99025ALC 25359.72235794  .00003790  00000+0  16661-2 0  9994",
        "tle_line2": "2 30562  98.7626  67.4091 0060034 227.9750 253.9513 14.23142059971846"
      },
      "geometry": {
        "type": "Point",
        "coordinates": [
          -117.99367745193038,
          -36.73756051967374
        ]
      }
    },
    {
      "type": "Feature",
      "properties": {
        "norad_id": 30564,
        "name": "FENGYUN 1C DEB",
        "group": "fengyun-1c-debris",
        "lat": -16.18957644810787,
        "lon": 14.89487946616809,
        "alt_km": 889.4595259874804,
        "timestamp": "2025-12-26T22:28:06.061624+00:00",
        "meta_object_name": "FENGYUN 1C DEB",
        "meta_object_id": "1999-025ALE",
        "meta_epoch": "2025-12-26T07:45:41.810112",
        "meta_mean_motion": 14.05785999,
        "meta_eccentricity": 0.02029171,
        "meta_inclination": 98.796,
        "meta_ra_of_asc_node": 11.7231,
        "meta_arg_of_pericenter": 80.85,
        "meta_mean_anomaly": 45.7365,
        "meta_ephemeris_type": 0,
        "meta_classification_type": "U",
        "meta_norad_cat_id": 30564,
        "meta_element_set_no": 999,
        "meta_rev_at_epoch": 96486,
        "meta_bstar": 0.00056260788,
        "meta_mean_motion_dot": 1.065e-05,
        "meta_mean_motion_ddot": 0,
        "tle_line1": "1 30564U 99025ALE 25360.32340058  .00001065  00000+0  56261-3 0  9998",
        "tle_line2": "2 30564  98.7960  11.7231 0202917  80.8500  45.7365 14.05785999964866"
      },
      "geometry": {
        "type": "Point",
        "coordinates": [
          14.89487946616809,
          -16.18957644810787
        ]
      }
    }
  ]
}